     2              NAVIGATION DATA                         RINEX VERSION / TYPE
CCRINEXN V1.6.0 UX  CDDIS               08-MAR-17 01:17     PGM / RUN BY / DATE 
IGS BROADCAST EPHEMERIS FILE                                COMMENT             
    0.1024D-07  0.0000D+00 -0.5960D-07  0.0000D+00          ION ALPHA           
    0.9011D+05  0.0000D+00 -0.1966D+06  0.0000D+00          ION BETA            
   -0.372529029846D-08-0.888178419700D-14   503808     1939 DELTA-UTC: A0,A1,T,W
    18                                                      LEAP SECONDS        
                                                            END OF HEADER       
12 17  3  8  2  0  0.0 0.387323088944D-03-0.454747350886D-12 0.000000000000D+00
    0.690000000000D+02 0.891562500000D+02 0.404981154805D-08-0.599747466186D+00
    0.478327274323D-05 0.651173829101D-02 0.736862421036D-05 0.515357219315D+04
    0.266400000000D+06 0.000000000000D+00-0.305642204578D+01 0.104308128357D-06
    0.989886438321D+00 0.256000000000D+03 0.804676597325D+00-0.795318842508D-08
    0.254296306748D-09 0.100000000000D+01 0.193900000000D+04 0.000000000000D+00
    0.200000000000D+01 0.000000000000D+00-0.121071934700D-07 0.690000000000D+02
    0.259956000000D+06 0.400000000000D+01 0.000000000000D+00 0.000000000000D+00
13 17  3  8  2  0  0.0-0.728787854314D-04-0.159161572810D-11 0.000000000000D+00
    0.570000000000D+02-0.250000000000D+00 0.466197990446D-08 0.103129598326D+01
   -0.186264514923D-07 0.402518815827D-02 0.606104731560D-05 0.515367789459D+04
    0.266400000000D+06 0.000000000000D+00 0.119075092033D+01-0.894069671631D-07
    0.969701265824D+00 0.266843750000D+03 0.184416658371D+01-0.818248369043D-08
   -0.142863093678D-09 0.100000000000D+01 0.193900000000D+04 0.000000000000D+00
    0.200000000000D+01 0.000000000000D+00-0.111758708954D-07 0.570000000000D+02
    0.259218000000D+06 0.400000000000D+01 0.000000000000D+00 0.000000000000D+00
14 17  3  8  2  0  0.0-0.618109479547D-04-0.159161572810D-11 0.000000000000D+00
    0.770000000000D+02 0.250000000000D+00 0.462983570838D-08 0.238667993137D+01
    0.745058059692D-08 0.875899859238D-02 0.630505383015D-05 0.515362520599D+04
    0.266400000000D+06 0.465661287308D-07 0.115182074504D+01-0.124797224999D-06
    0.962239751639D+00 0.257625000000D+03-0.195957690488D+01-0.800390482333D-08
   -0.100361323309D-09 0.100000000000D+01 0.193900000000D+04 0.000000000000D+00
    0.200000000000D+01 0.000000000000D+00-0.931322574616D-08 0.770000000000D+02
    0.259200000000D+06 0.400000000000D+01 0.000000000000D+00 0.000000000000D+00
15 17  3  8  2  0  0.0-0.345021951944D-03-0.909494701773D-12 0.000000000000D+00
    0.520000000000D+02 0.775000000000D+01 0.564487798897D-08 0.189934528623D+01
    0.361353158951D-06 0.907864212058D-02 0.550225377083D-05 0.515374851227D+04
    0.266400000000D+06-0.167638063431D-06 0.100606117597D+01 0.298023223877D-07
    0.929335591929D+00 0.259000000000D+03 0.576107337617D+00-0.865643200371D-08
   -0.575023952056D-10 0.100000000000D+01 0.193900000000D+04 0.000000000000D+00
    0.200000000000D+01 0.000000000000D+00-0.107102096081D-07 0.520000000000D+02
    0.259218000000D+06 0.400000000000D+01 0.000000000000D+00 0.000000000000D+00
16 17  3  8  2  0  0.0 0.282968394458D-04 0.102318153950D-11 0.000000000000D+00
    0.550000000000D+02 0.853125000000D+02 0.394695012060D-08-0.256929362382D+01
    0.425241887569D-05 0.924930814654D-02 0.681728124619D-05 0.515366109657D+04
    0.266400000000D+06-0.931322574616D-08-0.303759362447D+01-0.162050127983D-06
    0.990367723739D+00 0.266343750000D+03 0.407191053942D+00-0.779068165602D-08
    0.281083136812D-09 0.100000000000D+01 0.193900000000D+04 0.000000000000D+00
    0.200000000000D+01 0.000000000000D+00-0.107102096081D-07 0.550000000000D+02
    0.259200000000D+06 0.400000000000D+01 0.000000000000D+00 0.000000000000D+00
17 17  3  8  2  0  0.0-0.188768841326D-03 0.136424205266D-11 0.000000000000D+00
    0.460000000000D+02-0.463750000000D+02 0.442232706482D-08 0.268649738747D+01
   -0.239536166191D-05 0.116741124075D-01 0.222958624363D-05 0.515359118080D+04
    0.266400000000D+06 0.707805156708D-07-0.201948269364D+01-0.122934579849D-06
    0.979015769102D+00 0.341843750000D+03-0.185605768802D+01-0.813355308085D-08
   -0.180364655769D-09 0.100000000000D+01 0.193900000000D+04 0.000000000000D+00
    0.280000000000D+01 0.000000000000D+00-0.107102096081D-07 0.460000000000D+02
    0.259200000000D+06 0.400000000000D+01 0.000000000000D+00 0.000000000000D+00
18 17  3  8  2  0  0.0 0.603262335062D-03 0.238742359215D-11 0.000000000000D+00
    0.660000000000D+02 0.176875000000D+02 0.513449958680D-08-0.206091236248D+01
    0.877305865288D-06 0.177254513837D-01 0.923126935959D-05 0.515374617958D+04
    0.266400000000D+06 0.307336449623D-06-0.140096510782D-01-0.223517417908D-07
    0.925890238451D+00 0.180062500000D+03-0.182593880292D+01-0.803533470394D-08
    0.395730769489D-09 0.100000000000D+01 0.193900000000D+04 0.000000000000D+00
    0.200000000000D+01 0.000000000000D+00-0.111758708954D-07 0.660000000000D+02
    0.259200000000D+06 0.400000000000D+01 0.000000000000D+00 0.000000000000D+00
19 17  3  8  2  0  0.0-0.511123798788D-03 0.113686837722D-11 0.000000000000D+00
    0.710000000000D+02-0.450625000000D+02 0.459019119989D-08-0.439420884489D+00
   -0.219419598579D-05 0.101862461306D-01 0.291503965855D-05 0.515365194321D+04
    0.266400000000D+06-0.223517417908D-07-0.197142785795D+01 0.165775418282D-06
    0.976218153325D+00 0.331968750000D+03 0.924994565394D+00-0.852428364206D-08
   -0.139648674071D-09 0.100000000000D+01 0.193900000000D+04 0.000000000000D+00
    0.200000000000D+01 0.000000000000D+00-0.153668224812D-07 0.710000000000D+02
    0.260190000000D+06 0.400000000000D+01 0.000000000000D+00 0.000000000000D+00
20 17  3  8  2  0  0.0 0.463106669486D-03 0.159161572810D-11 0.000000000000D+00
    0.420000000000D+02 0.284375000000D+01 0.522986070183D-08 0.184259711545D+01
    0.316649675369D-07 0.451948726550D-02 0.972673296928D-05 0.515364137077D+04
    0.266400000000D+06 0.875443220139D-07-0.654348247317D-01-0.121071934700D-06
    0.927225837306D+00 0.174250000000D+03 0.156322545948D+01-0.828891669522D-08
    0.340014162955D-09 0.100000000000D+01 0.193900000000D+04 0.000000000000D+00
    0.200000000000D+01 0.000000000000D+00-0.838190317154D-08 0.420000000000D+02
    0.259218000000D+06 0.400000000000D+01 0.000000000000D+00 0.000000000000D+00
21 17  3  8  2  0  0.0-0.518377404660D-03 0.170530256582D-11 0.000000000000D+00
    0.840000000000D+02-0.783125000000D+02 0.498413618071D-08-0.116029321023D+01
   -0.385195016861D-05 0.239616784966D-01 0.867992639542D-05 0.515372934341D+04
    0.266400000000D+06-0.230967998505D-06-0.105470202300D+01 0.542029738426D-06
    0.938858827284D+00 0.201437500000D+03-0.169992774870D+01-0.854714173705D-08
   -0.189650756858D-09 0.100000000000D+01 0.193900000000D+04 0.000000000000D+00
    0.290000000000D+01 0.000000000000D+00-0.977888703346D-08 0.840000000000D+02
    0.259200000000D+06 0.400000000000D+01 0.000000000000D+00 0.000000000000D+00
22 17  3  8  2  0  0.0 0.799847766757D-04-0.117097442853D-10 0.000000000000D+00
    0.700000000000D+02 0.971875000000D+01 0.535486590880D-08 0.222090137145D+01
    0.348314642906D-06 0.746829796117D-02 0.939704477787D-05 0.515357136917D+04
    0.266400000000D+06 0.108033418655D-06-0.139860220254D-01-0.726431608200D-07
    0.923897210062D+00 0.176062500000D+03-0.179142136202D+01-0.829427406124D-08
    0.381444460121D-09 0.100000000000D+01 0.193900000000D+04 0.000000000000D+00
    0.200000000000D+01 0.000000000000D+00-0.176951289177D-07 0.700000000000D+02
    0.260550000000D+06 0.400000000000D+01 0.000000000000D+00 0.000000000000D+00
23 17  3  8  2  0  0.0-0.207050703466D-03-0.909494701773D-12 0.000000000000D+00
    0.660000000000D+02 0.653125000000D+01 0.524807574628D-08 0.148092281918D+01
    0.404193997383D-06 0.113409013720D-01 0.636652112007D-05 0.515377843666D+04
    0.266400000000D+06-0.169500708580D-06 0.106826155320D+01 0.121071934700D-06
    0.944532000189D+00 0.251343750000D+03-0.249500881472D+01-0.849106797278D-08
   -0.213580325049D-09 0.000000000000D+00 0.193900000000D+04 0.000000000000D+00
    0.200000000000D+01 0.000000000000D+00-0.200234353542D-07 0.660000000000D+02
    0.259200000000D+06 0.400000000000D+01 0.000000000000D+00 0.000000000000D+00
24 17  3  8  2  0  0.0-0.315364450216D-04-0.568434188608D-12 0.000000000000D+00
    0.240000000000D+02 0.921875000000D+01 0.481734351884D-08 0.814445876483D+00
    0.448897480965D-06 0.558605603874D-02 0.989623367786D-05 0.515370119858D+04
    0.266400000000D+06-0.614672899246D-07 0.209262749895D+01 0.113621354103D-06
    0.946022330427D+00 0.182187500000D+03 0.472072907343D+00-0.816712590786D-08
   -0.395730769489D-09 0.100000000000D+01 0.193900000000D+04 0.000000000000D+00
    0.200000000000D+01 0.000000000000D+00 0.232830643654D-08 0.240000000000D+02
    0.259218000000D+06 0.400000000000D+01 0.000000000000D+00 0.000000000000D+00
25 17  3  8  2  0  0.0-0.348294619471D-03-0.670752342558D-11 0.000000000000D+00
    0.560000000000D+02 0.863750000000D+02 0.419446043040D-08-0.115080609286D+01
    0.459514558315D-05 0.626721105073D-02 0.712089240551D-05 0.515362521744D+04
    0.266400000000D+06 0.968575477600D-07-0.311069128432D+01 0.838190317154D-07
    0.977870715326D+00 0.251687500000D+03 0.764481088597D+00-0.798640409436D-08
    0.238938524177D-09 0.100000000000D+01 0.193900000000D+04 0.000000000000D+00
    0.200000000000D+01 0.000000000000D+00 0.558793544769D-08 0.560000000000D+02
    0.264996000000D+06 0.400000000000D+01 0.000000000000D+00 0.000000000000D+00
